[{"OBJECT_NAME":"RCM-1","OBJECT_ID":"2019-033A","EPOCH":"2026-03-09T01:05:01.694400","MEAN_MOTION":14.92590685,"ECCENTRICITY":0.00015282,"INCLINATION":97.7599,"RA_OF_ASC_NODE":76.9091,"ARG_OF_PERICENTER":92.1165,"MEAN_ANOMALY":268.023,"EPHEMERIS_TYPE":0,"CLASSIFICATION_TYPE":"U","NORAD_CAT_ID":44322,"ELEMENT_SET_NO":999,"REV_AT_EPOCH":36714,"BSTAR":1.4271181e-5,"MEAN_MOTION_DOT":9.1e-7,"MEAN_MOTION_DDOT":0},{"OBJECT_NAME":"FENGYUN 1C DEB","OBJECT_ID":"1999-025DJ","EPOCH":"2026-03-09T15:12:33.799392","MEAN_MOTION":14.45278432,"ECCENTRICITY":0.0234382,"INCLINATION":98.9861,"RA_OF_ASC_NODE":298.7424,"ARG_OF_PERICENTER":278.6262,"MEAN_ANOMALY":154.9481,"EPHEMERIS_TYPE":0,"CLASSIFICATION_TYPE":"U","NORAD_CAT_ID":29816,"ELEMENT_SET_NO":999,"REV_AT_EPOCH":99442,"BSTAR":0.0011276,"MEAN_MOTION_DOT":5.496e-5,"MEAN_MOTION_DDOT":0}]
